[{"OBJECT_NAME":"STARLINK-31914","OBJECT_ID":"2024-100T","EPOCH":"2026-03-09T03:55:06.534912","MEAN_MOTION":15.27567526,"ECCENTRICITY":0.00012952,"INCLINATION":43.0032,"RA_OF_ASC_NODE":128.6013,"ARG_OF_PERICENTER":251.5976,"MEAN_ANOMALY":108.4735,"EPHEMERIS_TYPE":0,"CLASSIFICATION_TYPE":"U","NORAD_CAT_ID":59902,"ELEMENT_SET_NO":999,"REV_AT_EPOCH":10096,"BSTAR":-4.5257914e-5,"MEAN_MOTION_DOT":-1.507e-5,"MEAN_MOTION_DDOT":0},{"OBJECT_NAME":"LIZZIESAT-2 (LS-2)","OBJECT_ID":"2024-247G","EPOCH":"2026-03-09T11:47:37.199328","MEAN_MOTION":15.28222796,"ECCENTRICITY":0.00040927,"INCLINATION":44.9909,"RA_OF_ASC_NODE":117.0823,"ARG_OF_PERICENTER":327.5136,"MEAN_ANOMALY":32.5495,"EPHEMERIS_TYPE":0,"CLASSIFICATION_TYPE":"U","NORAD_CAT_ID":62383,"ELEMENT_SET_NO":999,"REV_AT_EPOCH":6771,"BSTAR":0.00034516624,"MEAN_MOTION_DOT":9.388e-5,"MEAN_MOTION_DDOT":0}]
